[{"OBJECT_NAME":"SL-8 R/B","OBJECT_ID":"1979-089B","EPOCH":"2026-03-19T07:36:36.022176","MEAN_MOTION":14.42356621,"ECCENTRICITY":0.00170044,"INCLINATION":74.0671,"RA_OF_ASC_NODE":73.2201,"ARG_OF_PERICENTER":244.8367,"MEAN_ANOMALY":115.1027,"EPHEMERIS_TYPE":0,"CLASSIFICATION_TYPE":"U","NORAD_CAT_ID":11574,"ELEMENT_SET_NO":999,"REV_AT_EPOCH":43749,"BSTAR":7.0096929e-5,"MEAN_MOTION_DOT":2.05e-6,"MEAN_MOTION_DDOT":0},{"OBJECT_NAME":"SL-14 R/B","OBJECT_ID":"1980-005B","EPOCH":"2026-03-19T14:14:28.810464","MEAN_MOTION":14.90940983,"ECCENTRICITY":0.0016921,"INCLINATION":82.5126,"RA_OF_ASC_NODE":297.8408,"ARG_OF_PERICENTER":127.0684,"MEAN_ANOMALY":233.2086,"EPHEMERIS_TYPE":0,"CLASSIFICATION_TYPE":"U","NORAD_CAT_ID":11672,"ELEMENT_SET_NO":999,"REV_AT_EPOCH":47796,"BSTAR":4.4787e-5,"MEAN_MOTION_DOT":4.69e-6,"MEAN_MOTION_DDOT":0},{"OBJECT_NAME":"SL-8 R/B","OBJECT_ID":"1981-003B","EPOCH":"2026-03-19T06:30:34.888032","MEAN_MOTION":15.11367258,"ECCENTRICITY":0.02614369,"INCLINATION":82.9361,"RA_OF_ASC_NODE":281.1625,"ARG_OF_PERICENTER":145.2437,"MEAN_ANOMALY":216.6194,"EPHEMERIS_TYPE":0,"CLASSIFICATION_TYPE":"U","NORAD_CAT_ID":12139,"ELEMENT_SET_NO":999,"REV_AT_EPOCH":31612,"BSTAR":0.00040901331,"MEAN_MOTION_DOT":0.00016126,"MEAN_MOTION_DDOT":0},{"OBJECT_NAME":"SL-3 R/B","OBJECT_ID":"1981-046B","EPOCH":"2026-03-19T20:12:11.172672","MEAN_MOTION":15.42232837,"ECCENTRICITY":0.0018747,"INCLINATION":81.2279,"RA_OF_ASC_NODE":277.5498,"ARG_OF_PERICENTER":346.8345,"MEAN_ANOMALY":13.2405,"EPHEMERIS_TYPE":0,"CLASSIFICATION_TYPE":"U","NORAD_CAT_ID":12465,"ELEMENT_SET_NO":999,"REV_AT_EPOCH":43999,"BSTAR":0.00021853,"MEAN_MOTION_DOT":9.476e-5,"MEAN_MOTION_DDOT":0},{"OBJECT_NAME":"SL-3 R/B","OBJECT_ID":"1981-103B","EPOCH":"2026-03-19T20:02:01.344192","MEAN_MOTION":15.21492227,"ECCENTRICITY":0.0012439,"INCLINATION":81.1604,"RA_OF_ASC_NODE":201.5312,"ARG_OF_PERICENTER":250.1199,"MEAN_ANOMALY":109.8693,"EPHEMERIS_TYPE":0,"CLASSIFICATION_TYPE":"U","NORAD_CAT_ID":12904,"ELEMENT_SET_NO":999,"REV_AT_EPOCH":97477,"BSTAR":0.00020386,"MEAN_MOTION_DOT":4.618e-5,"MEAN_MOTION_DDOT":0},{"OBJECT_NAME":"SL-3 R/B","OBJECT_ID":"1982-013B","EPOCH":"2026-03-19T20:07:40.183392","MEAN_MOTION":15.22108044,"ECCENTRICITY":0.0023191,"INCLINATION":81.1751,"RA_OF_ASC_NODE":148.8762,"ARG_OF_PERICENTER":143.7677,"MEAN_ANOMALY":216.5131,"EPHEMERIS_TYPE":0,"CLASSIFICATION_TYPE":"U","NORAD_CAT_ID":13068,"ELEMENT_SET_NO":999,"REV_AT_EPOCH":40589,"BSTAR":0.00013588,"MEAN_MOTION_DOT":3.16e-5,"MEAN_MOTION_DDOT":0},{"OBJECT_NAME":"SL-3 R/B","OBJECT_ID":"1982-039B","EPOCH":"2026-03-19T19:04:19.424928","MEAN_MOTION":15.10135756,"ECCENTRICITY":0.002923,"INCLINATION":81.1576,"RA_OF_ASC_NODE":204.3111,"ARG_OF_PERICENTER":291.2651,"MEAN_ANOMALY":68.5454,"EPHEMERIS_TYPE":0,"CLASSIFICATION_TYPE":"U","NORAD_CAT_ID":13154,"ELEMENT_SET_NO":999,"REV_AT_EPOCH":38316,"BSTAR":0.00012749,"MEAN_MOTION_DOT":2.122e-5,"MEAN_MOTION_DDOT":0},{"OBJECT_NAME":"SL-3 R/B","OBJECT_ID":"1982-079B","EPOCH":"2026-03-19T20:06:38.119680","MEAN_MOTION":15.24936626,"ECCENTRICITY":0.0025389,"INCLINATION":81.149,"RA_OF_ASC_NODE":181.0953,"ARG_OF_PERICENTER":131.1119,"MEAN_ANOMALY":229.2312,"EPHEMERIS_TYPE":0,"CLASSIFICATION_TYPE":"U","NORAD_CAT_ID":13403,"ELEMENT_SET_NO":999,"REV_AT_EPOCH":37924,"BSTAR":0.00020793,"MEAN_MOTION_DOT":5.251e-5,"MEAN_MOTION_DDOT":0},{"OBJECT_NAME":"SL-14 R/B","OBJECT_ID":"1982-092B","EPOCH":"2026-03-19T16:23:54.888288","MEAN_MOTION":14.86675198,"ECCENTRICITY":0.0018747,"INCLINATION":82.5674,"RA_OF_ASC_NODE":132.0518,"ARG_OF_PERICENTER":267.8187,"MEAN_ANOMALY":212.8568,"EPHEMERIS_TYPE":0,"CLASSIFICATION_TYPE":"U","NORAD_CAT_ID":13553,"ELEMENT_SET_NO":999,"REV_AT_EPOCH":33041,"BSTAR":3.8224e-5,"MEAN_MOTION_DOT":3.65e-6,"MEAN_MOTION_DDOT":0},{"OBJECT_NAME":"SL-3 R/B","OBJECT_ID":"1983-010B","EPOCH":"2026-03-19T18:57:02.516544","MEAN_MOTION":15.4669027,"ECCENTRICITY":0.0017007,"INCLINATION":81.1064,"RA_OF_ASC_NODE":349.8636,"ARG_OF_PERICENTER":17.6559,"MEAN_ANOMALY":342.5273,"EPHEMERIS_TYPE":0,"CLASSIFICATION_TYPE":"U","NORAD_CAT_ID":13819,"ELEMENT_SET_NO":999,"REV_AT_EPOCH":35950,"BSTAR":0.00024098,"MEAN_MOTION_DOT":0.00012136,"MEAN_MOTION_DDOT":0},{"OBJECT_NAME":"SL-3 R/B","OBJECT_ID":"1983-075B","EPOCH":"2026-03-19T19:59:43.567296","MEAN_MOTION":15.38643634,"ECCENTRICITY":0.0021218,"INCLINATION":97.6137,"RA_OF_ASC_NODE":83.7958,"ARG_OF_PERICENTER":188.0554,"MEAN_ANOMALY":172.0353,"EPHEMERIS_TYPE":0,"CLASSIFICATION_TYPE":"U","NORAD_CAT_ID":14208,"ELEMENT_SET_NO":999,"REV_AT_EPOCH":33171,"BSTAR":0.00023486,"MEAN_MOTION_DOT":8.944e-5,"MEAN_MOTION_DDOT":0},{"OBJECT_NAME":"COSMOS 1536","OBJECT_ID":"1984-013A","EPOCH":"2026-03-19T07:21:46.771776","MEAN_MOTION":15.23947072,"ECCENTRICITY":0.001262,"INCLINATION":82.541,"RA_OF_ASC_NODE":98.2869,"ARG_OF_PERICENTER":245.0757,"MEAN_ANOMALY":114.917,"EPHEMERIS_TYPE":0,"CLASSIFICATION_TYPE":"U","NORAD_CAT_ID":14699,"ELEMENT_SET_NO":999,"REV_AT_EPOCH":27408,"BSTAR":0.00018998806,"MEAN_MOTION_DOT":4.635e-5,"MEAN_MOTION_DDOT":0},{"OBJECT_NAME":"SL-14 R/B","OBJECT_ID":"1984-027B","EPOCH":"2026-03-19T20:39:55.098432","MEAN_MOTION":14.85986807,"ECCENTRICITY":0.0016678,"INCLINATION":82.5399,"RA_OF_ASC_NODE":235.4714,"ARG_OF_PERICENTER":302.4394,"MEAN_ANOMALY":57.5209,"EPHEMERIS_TYPE":0,"CLASSIFICATION_TYPE":"U","NORAD_CAT_ID":14820,"ELEMENT_SET_NO":999,"REV_AT_EPOCH":24914,"BSTAR":4.8966e-5,"MEAN_MOTION_DOT":4.53e-6,"MEAN_MOTION_DDOT":0},{"OBJECT_NAME":"SL-8 R/B","OBJECT_ID":"1985-006B","EPOCH":"2026-03-19T19:48:05.412096","MEAN_MOTION":14.37790578,"ECCENTRICITY":0.0018029,"INCLINATION":74.0437,"RA_OF_ASC_NODE":242.4964,"ARG_OF_PERICENTER":157.5577,"MEAN_ANOMALY":307.5764,"EPHEMERIS_TYPE":0,"CLASSIFICATION_TYPE":"U","NORAD_CAT_ID":15483,"ELEMENT_SET_NO":999,"REV_AT_EPOCH":15548,"BSTAR":0.00010859,"MEAN_MOTION_DOT":3.01e-6,"MEAN_MOTION_DDOT":0},{"OBJECT_NAME":"SL-12 R/B(2)","OBJECT_ID":"1985-042D","EPOCH":"2026-03-19T16:55:11.061696","MEAN_MOTION":14.21985107,"ECCENTRICITY":0.0032954,"INCLINATION":71.1068,"RA_OF_ASC_NODE":66.567,"ARG_OF_PERICENTER":111.5805,"MEAN_ANOMALY":60.7369,"EPHEMERIS_TYPE":0,"CLASSIFICATION_TYPE":"U","NORAD_CAT_ID":15772,"ELEMENT_SET_NO":999,"REV_AT_EPOCH":11581,"BSTAR":2.2492e-5,"MEAN_MOTION_DOT":3.0e-8,"MEAN_MOTION_DDOT":0},{"OBJECT_NAME":"SL-14 R/B","OBJECT_ID":"1985-069B","EPOCH":"2026-03-19T20:13:33.575808","MEAN_MOTION":14.86444252,"ECCENTRICITY":0.0019391,"INCLINATION":82.5299,"RA_OF_ASC_NODE":15.3878,"ARG_OF_PERICENTER":154.355,"MEAN_ANOMALY":205.8633,"EPHEMERIS_TYPE":0,"CLASSIFICATION_TYPE":"U","NORAD_CAT_ID":15945,"ELEMENT_SET_NO":999,"REV_AT_EPOCH":17434,"BSTAR":4.9852e-5,"MEAN_MOTION_DOT":4.66e-6,"MEAN_MOTION_DDOT":0},{"OBJECT_NAME":"SL-16 R/B","OBJECT_ID":"1985-097B","EPOCH":"2026-03-19T07:26:46.055328","MEAN_MOTION":14.16599881,"ECCENTRICITY":0.0009622,"INCLINATION":71.0013,"RA_OF_ASC_NODE":120.3003,"ARG_OF_PERICENTER":248.0114,"MEAN_ANOMALY":187.2002,"EPHEMERIS_TYPE":0,"CLASSIFICATION_TYPE":"U","NORAD_CAT_ID":16182,"ELEMENT_SET_NO":999,"REV_AT_EPOCH":8859,"BSTAR":0.00015785869,"MEAN_MOTION_DOT":2.67e-6,"MEAN_MOTION_DDOT":0}]
