SL-8 R/B                
1 11574U 79089B   26078.31708359  .00000205  00000+0  70097-4 0  9993
2 11574  74.0671  73.2201 0017004 244.8367 115.1027 14.42356621437494
SL-14 R/B               
1 11672U 80005B   26078.59338901  .00000469  00000+0  44787-4 0  9993
2 11672  82.5126 297.8408 0016921 127.0684 233.2086 14.90940983477962
SL-8 R/B                
1 12139U 81003B   26078.27123713  .00016126  00000+0  40901-3 0  9999
2 12139  82.9361 281.1625 0261436 145.2437 216.6194 15.11367258316121
SL-3 R/B                
1 12465U 81046B   26078.84179598  .00009476  00000+0  21853-3 0  9998
2 12465  81.2279 277.5498 0018747 346.8345  13.2405 15.42232837439997
SL-3 R/B                
1 12904U 81103B   26078.83473778  .00004618  00000+0  20386-3 0  9999
2 12904  81.1604 201.5312 0012439 250.1199 109.8693 15.21492227974773
SL-3 R/B                
1 13068U 82013B   26078.83865953  .00003160  00000+0  13588-3 0  9999
2 13068  81.1751 148.8762 0023191 143.7677 216.5131 15.22108044405892
SL-3 R/B                
1 13154U 82039B   26078.79466927  .00002122  00000+0  12749-3 0  9991
2 13154  81.1576 204.3111 0029230 291.2651  68.5454 15.10135756383165
SL-3 R/B                
1 13403U 82079B   26078.83794120  .00005251  00000+0  20793-3 0  9990
2 13403  81.1490 181.0953 0025389 131.1119 229.2312 15.24936626379247
SL-14 R/B               
1 13553U 82092B   26078.68327417  .00000365  00000+0  38224-4 0  9995
2 13553  82.5674 132.0518 0018747 267.8187 212.8568 14.86675198330415
SL-3 R/B                
1 13819U 83010B   26078.78961246  .00012136  00000+0  24098-3 0  9998
2 13819  81.1064 349.8636 0017007  17.6559 342.5273 15.46690270359509
SL-3 R/B                
1 14208U 83075B   26078.83314314  .00008944  00000+0  23486-3 0  9998
2 14208  97.6137  83.7958 0021218 188.0554 172.0353 15.38643634331714
COSMOS 1536             
1 14699U 84013A   26078.30679134  .00004635  00000+0  18999-3 0  9997
2 14699  82.5410  98.2869 0012620 245.0757 114.9170 15.23947072274088
SL-14 R/B               
1 14820U 84027B   26078.86105438  .00000453  00000+0  48966-4 0  9992
2 14820  82.5399 235.4714 0016678 302.4394  57.5209 14.85986807249146
SL-8 R/B                
1 15483U 85006B   26078.82506264  .00000301  00000+0  10859-3 0  9995
2 15483  74.0437 242.4964 0018029 157.5577 307.5764 14.37790578155482
SL-12 R/B(2)            
1 15772U 85042D   26078.70498914  .00000003  00000+0  22492-4 0  9991
2 15772  71.1068  66.5670 0032954 111.5805  60.7369 14.21985107115816
SL-14 R/B               
1 15945U 85069B   26078.84274972  .00000466  00000+0  49852-4 0  9995
2 15945  82.5299  15.3878 0019391 154.3550 205.8633 14.86444252174345
SL-16 R/B               
1 16182U 85097B   26078.31025527  .00000267  00000+0  15786-3 0  9999
2 16182  71.0013 120.3003 0009622 248.0114 187.2002 14.16599881 88592
